AMC-3                   
1 24936U 97050A   26115.83797920 -.00000271  00000+0  00000+0 0  9994
2 24936   8.0204  64.6743 0003063 318.6000  60.2457  1.00271597 51912
NSS-11                  
1 26554U 00059A   26115.88711941  .00000013  00000+0  00000+0 0  9992
2 26554   1.9934  81.9698 0002822 312.0820 315.2026  1.00272347 40763
AMC-6                   
1 26580U 00067A   26115.68299315  .00000074  00000+0  00000+0 0  9991
2 26580   0.0737  68.5061 0003887 342.5633 273.4884  1.00273710 93366
AMC-11                  
1 28252U 04017A   26112.56614848  .00000077  00000+0  00000+0 0  9997
2 28252   0.1665  82.5408 0005045 326.8232 237.0640  0.99197073 80304
AMC-15                  
1 28446U 04041A   26115.62544729 -.00000103  00000+0  00000+0 0  9990
2 28446   0.0492  54.7280 0002580 337.2203 301.7915  1.00277034 78771
NSS-10                  
1 28526U 05003A   26114.77532073 -.00000262  00000+0  00000+0 0  9998
2 28526   6.3158  71.0753 0003015 288.4515  94.9373  1.00271973 52623
ASTRA 1KR               
1 29055U 06012A   26115.94697694  .00000106  00000+0  00000+0 0  9994
2 29055   0.3402  82.5428 0003439 309.8427 181.4719  1.00273242 45172
ASTRA 1L                
1 31306U 07016A   26115.91875286 -.00000197  00000+0  00000+0 0  9994
2 31306   1.1884  81.9103 0004663 328.0663 110.1922  1.00271542 44462
ASTRA 4A                
1 32299U 07057A   26115.92455955  .00000020  00000+0  00000+0 0  9993
2 32299   0.0183 337.9213 0002726  68.7552 144.9113  1.00274753 51128
ASTRA 1M                
1 33436U 08057A   26115.94697694  .00000108  00000+0  00000+0 0  9995
2 33436   0.1629  79.3319 0003766   1.6780 133.2585  1.00274035 45216
NSS-9                   
1 33749U 09008A   26115.81726578  .00000059  00000+0  00000+0 0  9994
2 33749   1.1281  83.0801 0002160 293.4689 314.5546  1.00271385 62992
SES-7 (PROTOSTAR 2)     
1 34941U 09027A   26115.80244571 -.00000358  00000+0  00000+0 0  9990
2 34941   0.0951  79.1480 0001780 244.8253 286.9758  1.00270853 62101
NSS-12                  
1 36032U 09058A   26115.97623211  .00000058  00000+0  00000+0 0  9993
2 36032   0.0613  61.9212 0005045 309.9464 250.5525  1.00271946 60398
SES-1                   
1 36516U 10016A   26115.41862355 -.00000128  00000+0  00000+0 0  9998
2 36516   0.0263 287.7755 0002603 107.3666 227.9903  1.00270798 58509
ASTRA 3B                
1 36581U 10021A   26115.96393323  .00000125  00000+0  00000+0 0  9996
2 36581   1.3350  84.1496 0003898 319.4213 180.9447  1.00268791 58347
SES-3                   
1 37748U 11035A   26115.90323947 -.00000114  00000+0  00000+0 0  9996
2 37748   1.1931  83.5906 0003061 311.7839  40.7085  1.00271575 54066
ASTRA 1N                
1 37775U 11041A   26115.94697694  .00000106  00000+0  00000+0 0  9990
2 37775   0.0971  49.3156 0005462   9.4290 155.3288  1.00270293 44001
SES-2                   
1 37809U 11049A   26115.86780985 -.00000209  00000+0  00000+0 0  9998
2 37809   0.0584  75.7990 0002761 315.3351  48.1532  1.00272686 53430
QUETZSAT 1              
1 37826U 11054A   26115.86780985 -.00000255  00000+0  00000+0 0  9994
2 37826   0.0543  61.9459 0002510 344.7640  42.5768  1.00272230 49349
SES-4                   
1 38087U 12007A   26115.91927286 -.00000181  00000+0  00000+0 0  9994
2 38087   0.0220  44.4121 0002529   8.8324 109.6386  1.00273858 51701
SES-5                   
1 38652U 12036A   26115.92455955  .00000020  00000+0  00000+0 0  9995
2 38652   0.0594 300.5640 0001886  89.0990 162.0897  1.00272343 43934
ASTRA 2F                
1 38778U 12051A   26115.85791260  .00000136  00000+0  00000+0 0  9993
2 38778   0.0381 250.7966 0000576  20.5067 279.6141  1.00271286 40618
SES-6                   
1 39172U 13026A   26115.91554618 -.00000275  00000+0  00000+0 0  9991
2 39172   0.0245 342.6069 0002381  55.9604 104.4479  1.00271210 47204
O3B FM5                 
1 39188U 13031A   26115.86863597 -.00000027  00000+0  00000+0 0  9992
2 39188   0.1023   0.1408 0003141  23.8377 336.0345  5.00116472234424
O3B FM4                 
1 39189U 13031B   26115.78803782 -.00000027  00000+0  00000+0 0  9994
2 39189   0.0495 346.0223 0005145  48.4423 325.5669  5.00115143234421
O3B FM2                 
1 39190U 13031C   26115.85363188 -.00000027  00000+0  00000+0 0  9995
2 39190   0.0473 339.1574 0002788  53.2159 327.6420  5.00115975234499
O3B PFM                 
1 39191U 13031D   26113.46906767 -.00000026  00000+0  00000+0 0  9996
2 39191   0.0700 358.7224 0004841  42.5713 318.7416  5.00115912233936
ASTRA 2E                
1 39285U 13056A   26115.94683807  .00000137  00000+0  00000+0 0  9991
2 39285   0.0617   5.8531 0002317  29.7148 187.7669  1.00272180 45890
SES-8                   
1 39460U 13071A   26115.96518654 -.00000283  00000+0  00000+0 0  9995
2 39460   0.0169 259.6563 0002376 152.0460 244.7446  1.00272150 43907
ASTRA 5B                
1 39617U 14011B   26115.94697694  .00000123  00000+0  00000+0 0  9996
2 39617   0.0692 306.5121 0002682  64.7886 207.0682  1.00269219 44148
O3B FM3                 
1 40079U 14038A   26115.53461705 -.00000027  00000+0  00000+0 0  9990
2 40079   0.0515 355.3021 0001395 105.0225 259.6893  5.00115585210415
O3B FM7                 
1 40080U 14038B   26115.08093563 -.00000027  00000+0  00000+0 0  9995
2 40080   0.0544 347.6471 0004218  28.2337 344.1306  5.00115615215226
O3B FM6                 
1 40081U 14038C   26115.70760149 -.00000027  00000+0  00000+0 0  9996
2 40081   0.0521 352.0239 0002643  41.6225 326.3686  5.00115683215205
O3B FM8                 
1 40082U 14038D   26115.76088953 -.00000027  00000+0  00000+0 0  9999
2 40082   0.0525 351.0147 0002703  47.4699 321.5329  5.00115961215326
O3B FM10                
1 40348U 14083A   26115.58813625 -.00000027  00000+0  00000+0 0  9996
2 40348   0.0389 337.7556 0002653  57.6099 324.6504  5.00115287207269
O3B FM11                
1 40349U 14083B   26115.80071202 -.00000027  00000+0  00000+0 0  9999
2 40349   0.0578 359.4196 0002919  21.5522 339.0384  5.00115551207290
O3B FM12                
1 40350U 14083C   26115.82776879 -.00000027  00000+0  00000+0 0  9995
2 40350   0.0570 359.0554 0002552  32.1526 328.8055  5.00115930207307
O3B FM9                 
1 40351U 14083D   26115.65471021 -.00000027  00000+0  00000+0 0  9998
2 40351   0.0590 359.1750 0002707  34.7092 326.1314  5.00115907207445
ASTRA 2G                
1 40364U 14089A   26115.85791260  .00000136  00000+0  00000+0 0  9990
2 40364   0.0562  28.1350 0004732  15.1660 147.5990  1.00270717 41449
SES-9                   
1 41380U 16013A   26115.94052814 -.00000358  00000+0  00000+0 0  9990
2 41380   0.0164 285.3139 0001996 134.1316 241.3811  1.00270312 36919
SES-10                  
1 42432U 17017A   26115.91034617 -.00000286  00000+0  00000+0 0  9992
2 42432   0.0255  14.9532 0002805  32.7215  67.0762  1.00272879 33233
SES-15                  
1 42709U 17026A   26115.68411983  .00000046  00000+0  00000+0 0  9991
2 42709   0.0249 331.2396 0000622  35.8861 323.6957  1.00270298  6906
SES-11 (ECHOSTAR 105)   
1 42967U 17063A   26115.90280613  .00000000  00000+0  00000+0 0  9997
2 42967   0.0185  67.3828 0002868 354.3977  12.1907  1.00269605 31193
SES-14                  
1 43175U 18012B   26115.91415951 -.00000292  00000+0  00000+0 0  9994
2 43175   0.0236  64.2246 0000942 323.9892 107.3152  1.00271525  6501
O3B FM15                
1 43231U 18024A   26115.72149344 -.00000027  00000+0  00000+0 0  9995
2 43231   0.0510   4.1856 0002639  27.8727 327.9560  5.00115745148405
O3B FM16                
1 43232U 18024B   26115.77384741 -.00000027  00000+0  00000+0 0  9993
2 43232   0.0487   8.2295 0002685  22.4728 329.3116  5.00115781148328
O3B FM14                
1 43233U 18024C   26115.01506422 -.00000027  00000+0  00000+0 0  9993
2 43233   0.0471   8.1994 0002861  26.7396 325.0779  5.00115692148296
O3B FM13                
1 43234U 18024D   26115.08092587 -.00000027  00000+0  00000+0 0  9993
2 43234   0.0559 329.1327 0003596  20.8365  10.0218  5.00115557148409
SES-12                  
1 43488U 18049A   26115.98369749  .00000000  00000+0  00000+0 0  9997
2 43488   0.0161  69.6107 0001300 249.8261 343.6976  1.00271361 28898
O3B FM20                
1 44112U 19020A   26115.84066545 -.00000027  00000+0  00000+0 0  9995
2 44112   0.0532   1.2950 0002589  23.2260 335.4896  5.00115504128954
O3B FM19                
1 44113U 19020B   26111.67003593 -.00000022  00000+0  00000+0 0  9992
2 44113   0.0716 348.2754 0003491  26.5306 345.2041  5.00115966128611
O3B FM17                
1 44114U 19020C   26115.34817456 -.00000027  00000+0  00000+0 0  9997
2 44114   0.0342 354.8678 0002609  36.6567 328.4893  5.00115482128886
O3B FM18                
1 44115U 19020D   26115.69426774 -.00000027  00000+0  00000+0 0  9995
2 44115   0.0537   1.5150 0002733  34.2778 324.2238  5.00115236129021
SES-17                  
1 49332U 21095A   26115.91034617 -.00000286  00000+0  00000+0 0  9999
2 49332   0.0254  55.2077 0001041 335.7570  83.5715  1.00269484 17333
SES-22                  
1 52933U 22071A   26115.63725223  .00000090  00000+0  00000+0 0  9996
2 52933   0.0059  58.7892 0000925 330.7420 274.5158  1.00273258  6996
SES-20                  
1 53960U 22123A   26115.90315280  .00000000  00000+0  00000+0 0  9994
2 53960   0.0232 102.8831 0001817 326.4233   6.6513  1.00269407 13009
SES-21                  
1 53961U 22123B   26114.97073317  .00000055  00000+0  00000+0 0  9993
2 53961   0.0251  64.6447 0001317 318.3160  48.5250  1.00272300  6677
O3B MPOWER F1           
1 54755U 22174A   26115.65297668 -.00000027  00000+0  00000+0 0  9994
2 54755   0.0598 347.3990 0005968  66.0147  92.0009  5.00114823 62739
O3B MPOWER F2           
1 54756U 22174B   26115.53887779 -.00000027  00000+0  00000+0 0  9990
2 54756   0.0564 345.0501 0005937  47.5246 327.4601  5.00115368 62802
SES-18                  
1 55970U 23038A   26115.60074394 -.00000115  00000+0  00000+0 0  9996
2 55970   0.0187 258.1103 0001496  71.2169 357.4473  1.00271301 11572
SES-19                  
1 55971U 23038B   26115.68299315  .00000074  00000+0  00000+0 0  9990
2 55971   0.0246 283.8124 0001684 104.3069 296.5575  1.00273486 11564
O3B MPOWER F4           
1 56367U 23059A   26115.80308458 -.00000027  00000+0  00000+0 0  9995
2 56367   0.0649   2.6449 0007250  44.1224 313.2915  5.00115881 55973
O3B MPOWER F3           
1 56368U 23059B   26115.83635555 -.00000027  00000+0  00000+0 0  9990
2 56368   0.0660   2.3880 0006648  34.6963 322.9599  5.00116608 52113
O3B MPOWER F5           
1 58346U 23175A   26115.73718667 -.00000027  00000+0  00000+0 0  9992
2 58346   0.0447  11.7939 0004468  35.0713 313.1704  5.00115556 46810
O3B MPOWER F6           
1 58347U 23175B   26115.83785449 -.00000027  00000+0  00000+0 0  9996
2 58347   0.0513   6.1734 0004729  18.9973 334.8506  5.00116222 45735
ASTRA 1P (SES-24)       
1 60086U 24115A   26114.28743833  .00000105  00000+0  00000+0 0  9999
2 60086   0.0784  43.1438 0003743 261.4150  30.4242  1.00262578  6653
O3B MPOWER F7           
1 62362U 24244A   26115.50434947 -.00000027  00000+0  00000+0 0  9994
2 62362   0.0717 358.2528 0006074  33.8541 327.9284  5.00115165 23891
O3B MPOWER F8           
1 62363U 24244B   26115.67118335 -.00000027  00000+0  00000+0 0  9993
2 62363   0.0331 314.8884 0006298  70.6497 334.4912  5.00115440 18244
O3B MPOWER F9           
1 64866U 25153A   26115.80457616 -.00000027  00000+0  00000+0 0  9996
2 64866   0.0539  15.2785 0005552  44.5914 300.1834  5.00116064 16943
O3B MPOWER F10          
1 64867U 25153B   26115.37069255 -.00000027  00000+0  00000+0 0  9997
2 64867   0.0538  10.3189 0002819 261.8403  87.8067  5.00114865 19393
